IRIDIUM 33 DEB          
1 34765U 97051LJ  26063.79868745  .00001917  00000+0  59315-3 0  9991
2 34765  86.3441 357.5478 0014965 315.1597  73.1144 14.40737772887957
IRIDIUM 33 DEB          
1 34833U 97051MH  26063.32700355  .00005256  00000+0  12662-2 0  9991
2 34833  86.3969  15.8073 0019000 175.7434 336.2819 14.53002255888990
IRIDIUM 33 DEB          
1 34870U 97051MQ  26061.88326943  .00009814  00000+0  13451-2 0  9999
2 34870  86.3060 277.3223 0014730 275.7378 144.8425 14.78283800900948
IRIDIUM 33 DEB          
1 34896U 97051MY  26063.39227146  .00006148  00000+0  10830-2 0  9995
2 34896  86.3261 290.0466 0024226 301.9211 181.1911 14.67234408888160
IRIDIUM 33 DEB          
1 34926U 97051NF  26063.45186290  .00041535  00000+0  84548-2 0  9996
2 34926  86.1330 330.2608 0080243  17.9480  35.9019 14.58794511876468
IRIDIUM 33 DEB          
1 34985U 97051NR  26062.84940361  .00003536  00000+0  10607-2 0  9994
2 34985  86.3723  22.2545 0020150 323.4939  65.6321 14.42432725883445
IRIDIUM 33 DEB          
1 35051U 97051NX  26062.19624420  .00002674  00000+0  71394-3 0  9995
2 35051  86.3285 333.7982 0007886 165.3511 194.7923 14.48072669881609
IRIDIUM 33 DEB          
1 35052U 97051NY  26062.75572411  .00000774  00000+0  24623-3 0  9992
2 35052  86.3362 345.7545 0011545 166.6024 193.5483 14.38619205884405
IRIDIUM 33 DEB          
1 35080U 97051PF  26063.57973483  .00164931  00000+0  11929-1 0  9997
2 35080  86.2070  12.8377 0029339 236.8268 123.0151 15.02888093709092
IRIDIUM 33 DEB          
1 35297U 97051PM  26062.66907185  .00003100  00000+0  87194-3 0  9991
2 35297  86.3861  28.1932 0013455 231.0302 128.9703 14.45579710715954
IRIDIUM 33 DEB          
1 35299U 97051PP  26063.29182036  .00005999  00000+0  18059-2 0  9994
2 35299  86.2922 357.6665 0053632 191.2984 322.9952 14.41627307875052
IRIDIUM 33 DEB          
1 35480U 97051QA  26061.23131842  .00002995  00000+0  76407-3 0  9992
2 35480  86.3616 350.4456 0012511 190.4902 169.6043 14.50243832881833
IRIDIUM 33 DEB          
1 35484U 97051QE  26050.19184175  .00037506  00000+0  25740-2 0  9995
2 35484  86.3587 320.5585 0011587 239.1626 120.8470 15.05777687630433
IRIDIUM 33 DEB          
1 35488U 97051QJ  26063.52938040  .00017474  00000+0  20194-2 0  9998
2 35488  86.3188 263.0970 0027446 108.2033 252.2182 14.85211988894797
IRIDIUM 33 DEB          
1 35616U 97051QN  26062.00372993  .00013776  00000+0  16284-2 0  9998
2 35616  86.3536 309.0606 0006782 263.3407  96.7045 14.84547006887649
IRIDIUM 33 DEB          
1 35618U 97051QQ  26063.46654887  .00002274  00000+0  54635-3 0  9990
2 35618  86.3417 317.7694 0030547 101.7612 258.7023 14.52714174665806
